start=new Date('2022-09-08T00:00:00.000Z').valueOf();
sats=[{"EPHEMERIS_TYPE":"0","ARG_OF_PERICENTER":"76.1928","REV_AT_EPOCH":"10438","TIME_SYSTEM":"UTC","ECCENTRICITY":"0.00015580","MEAN_MOTION":"15.06394027","RA_OF_ASC_NODE":"222.2953","SEMIMAJOR_AXIS":"6925.367","OBJECT_NAME":"STARLINK-1820","CLASSIFICATION_TYPE":"U","GP_ID":"212008453","MEAN_MOTION_DOT":"0.00000875","LAUNCH_DATE":"2020-10-18","DECAY_DATE":null,"TLE_LINE2":"2 46717  53.0526 222.2953 0001558  76.1928 283.9234 15.06394027104389","RCS_SIZE":"LARGE","APOAPSIS":"548.311","COUNTRY_CODE":"US","ELEMENT_SET_NO":"999","SITE":"AFETR","PERIOD":"95.593","MEAN_MOTION_DDOT":"0.0000000000000","PERIAPSIS":"546.153","NORAD_CAT_ID":"46717","OBJECT_TYPE":"PAYLOAD","INCLINATION":"53.0526","OBJECT_ID":"2020-073AZ","BSTAR":"0.00007762600000","MEAN_ANOMALY":"283.9234","REF_FRAME":"TEME","CENTER_NAME":"EARTH","EPOCH":"2022-09-07T21:49:24.953376","MEAN_ELEMENT_THEORY":"SGP4","FILE":"3563022","TLE_LINE1":"1 46717U 20073AZ  22250.90931659  .00000875  00000-0  77626-4 0  9992"},{"BSTAR":"0.00013914000000","INCLINATION":"53.0553","OBJECT_ID":"2020-073BA","OBJECT_TYPE":"PAYLOAD","TLE_LINE1":"1 46718U 20073BA  22250.81668242  .00001791  00000-0  13914-3 0  9995","FILE":"3563022","MEAN_ELEMENT_THEORY":"SGP4","EPOCH":"2022-09-07T19:36:01.361088","CENTER_NAME":"EARTH","REF_FRAME":"TEME","MEAN_ANOMALY":"275.0070","RA_OF_ASC_NODE":"237.6886","SEMIMAJOR_AXIS":"6925.365","OBJECT_NAME":"STARLINK-1821","MEAN_MOTION":"15.06394669","ECCENTRICITY":"0.00014990","REV_AT_EPOCH":"10416","TIME_SYSTEM":"UTC","ARG_OF_PERICENTER":"85.1090","EPHEMERIS_TYPE":"0","MEAN_MOTION_DDOT":"0.0000000000000","NORAD_CAT_ID":"46718","PERIAPSIS":"546.192","COUNTRY_CODE":"US","APOAPSIS":"548.268","ELEMENT_SET_NO":"999","PERIOD":"95.592","SITE":"AFETR","TLE_LINE2":"2 46718  53.0553 237.6886 0001499  85.1090 275.0070 15.06394669104167","RCS_SIZE":"LARGE","DECAY_DATE":null,"LAUNCH_DATE":"2020-10-18","MEAN_MOTION_DOT":"0.00001791","GP_ID":"212008703","CLASSIFICATION_TYPE":"U"},{"RCS_SIZE":"LARGE","TLE_LINE2":"2 46719  53.0537 205.1596 0001575  63.9263 296.1888 15.06397737104574","DECAY_DATE":null,"LAUNCH_DATE":"2020-10-18","GP_ID":"211963696","MEAN_MOTION_DOT":"-0.00001219","CLASSIFICATION_TYPE":"U","MEAN_MOTION_DDOT":"0.0000000000000","NORAD_CAT_ID":"46719","PERIAPSIS":"546.130","APOAPSIS":"548.311","COUNTRY_CODE":"US","ELEMENT_SET_NO":"999","SITE":"AFETR","PERIOD":"95.592","ARG_OF_PERICENTER":"63.9263","EPHEMERIS_TYPE":"0","SEMIMAJOR_AXIS":"6925.355","RA_OF_ASC_NODE":"205.1596","OBJECT_NAME":"STARLINK-1822","ECCENTRICITY":"0.00015750","MEAN_MOTION":"15.06397737","REV_AT_EPOCH":"10457","TIME_SYSTEM":"UTC","MEAN_ELEMENT_THEORY":"SGP4","CENTER_NAME":"EARTH","EPOCH":"2022-09-07T06:28:30.578304","REF_FRAME":"TEME","MEAN_ANOMALY":"296.1888","TLE_LINE1":"1 46719U 20073BB  22250.26979836 -.00001219  00000-0 -62942-4 0  9992","FILE":"3562217","OBJECT_TYPE":"PAYLOAD","BSTAR":"-0.00006294200000","INCLINATION":"53.0537","OBJECT_ID":"2020-073BB"},{"OBJECT_NAME":"STARLINK-1825","RA_OF_ASC_NODE":"237.8914","SEMIMAJOR_AXIS":"6925.361","TIME_SYSTEM":"UTC","REV_AT_EPOCH":"10415","ECCENTRICITY":"0.00016280","MEAN_MOTION":"15.06395837","ARG_OF_PERICENTER":"67.1546","EPHEMERIS_TYPE":"0","PERIAPSIS":"546.099","NORAD_CAT_ID":"46722","MEAN_MOTION_DDOT":"0.0000000000000","PERIOD":"95.592","SITE":"AFETR","ELEMENT_SET_NO":"999","COUNTRY_CODE":"US","APOAPSIS":"548.354","LAUNCH_DATE":"2020-10-18","TLE_LINE2":"2 46722  53.0535 237.8914 0001628  67.1546 292.9615 15.06395837104156","RCS_SIZE":"LARGE","DECAY_DATE":null,"CLASSIFICATION_TYPE":"U","MEAN_MOTION_DOT":"-0.00001256","GP_ID":"212009705","BSTAR":"-0.00006546500000","OBJECT_ID":"2020-073BE","INCLINATION":"53.0535","OBJECT_TYPE":"PAYLOAD","FILE":"3563022","TLE_LINE1":"1 46722U 20073BE  22250.77708120 -.00001256  00000-0 -65465-4 0  9992","EPOCH":"2022-09-07T18:38:59.815680","CENTER_NAME":"EARTH","MEAN_ELEMENT_THEORY":"SGP4","MEAN_ANOMALY":"292.9615","REF_FRAME":"TEME"},{"CENTER_NAME":"EARTH","EPOCH":"2022-09-07T20:51:41.203296","MEAN_ELEMENT_THEORY":"SGP4","MEAN_ANOMALY":"288.3257","REF_FRAME":"TEME","FILE":"3563022","TLE_LINE1":"1 46723U 20073BF  22250.86922689 -.00000124  00000-0  10547-4 0  9994","OBJECT_TYPE":"PAYLOAD","BSTAR":"0.00001054700000","INCLINATION":"53.0546","OBJECT_ID":"2020-073BF","LAUNCH_DATE":"2020-10-18","RCS_SIZE":"LARGE","TLE_LINE2":"2 46723  53.0546 197.4748 0001580  71.7904 288.3257 15.06396491104733","DECAY_DATE":null,"CLASSIFICATION_TYPE":"U","MEAN_MOTION_DOT":"-0.00000124","GP_ID":"212007955","MEAN_MOTION_DDOT":"0.0000000000000","NORAD_CAT_ID":"46723","PERIAPSIS":"546.130","COUNTRY_CODE":"US","ELEMENT_SET_NO":"999","APOAPSIS":"548.319","SITE":"AFETR","PERIOD":"95.592","ARG_OF_PERICENTER":"71.7904","EPHEMERIS_TYPE":"0","SEMIMAJOR_AXIS":"6925.359","RA_OF_ASC_NODE":"197.4748","OBJECT_NAME":"STARLINK-1826","REV_AT_EPOCH":"10473","TIME_SYSTEM":"UTC","ECCENTRICITY":"0.00015800","MEAN_MOTION":"15.06396491"},{"CLASSIFICATION_TYPE":"U","GP_ID":"211963947","MEAN_MOTION_DOT":"-0.00001155","LAUNCH_DATE":"2020-10-18","RCS_SIZE":"LARGE","TLE_LINE2":"2 46725  53.0549 240.4327 0001490  74.5960 285.5194 15.06382142104077","DECAY_DATE":null,"SITE":"AFETR","PERIOD":"95.593","COUNTRY_CODE":"US","APOAPSIS":"548.300","ELEMENT_SET_NO":"999","NORAD_CAT_ID":"46725","PERIAPSIS":"546.236","MEAN_MOTION_DDOT":"0.0000000000000","EPHEMERIS_TYPE":"0","ARG_OF_PERICENTER":"74.5960","REV_AT_EPOCH":"10407","TIME_SYSTEM":"UTC","MEAN_MOTION":"15.06382142","ECCENTRICITY":"0.00014900","OBJECT_NAME":"STARLINK-1828","RA_OF_ASC_NODE":"240.4327","SEMIMAJOR_AXIS":"6925.403","MEAN_ANOMALY":"285.5194","REF_FRAME":"TEME","CENTER_NAME":"EARTH","EPOCH":"2022-09-07T05:01:36.797088","MEAN_ELEMENT_THEORY":"SGP4","FILE":"3562217","TLE_LINE1":"1 46725U 20073BH  22250.20945367 -.00001155  00000-0 -58706-4 0  9997","OBJECT_TYPE":"PAYLOAD","OBJECT_ID":"2020-073BH","INCLINATION":"53.0549","BSTAR":"-0.00005870600000"},{"TIME_SYSTEM":"UTC","REV_AT_EPOCH":"10434","MEAN_MOTION":"15.06397126","ECCENTRICITY":"0.00013860","OBJECT_NAME":"STARLINK-1829","RA_OF_ASC_NODE":"223.5248","SEMIMAJOR_AXIS":"6925.357","EPHEMERIS_TYPE":"0","ARG_OF_PERICENTER":"169.2547","SITE":"AFETR","PERIOD":"95.592","ELEMENT_SET_NO":"999","COUNTRY_CODE":"US","APOAPSIS":"548.182","NORAD_CAT_ID":"46726","PERIAPSIS":"546.263","MEAN_MOTION_DDOT":"0.0000000000000","CLASSIFICATION_TYPE":"U","GP_ID":"212009455","MEAN_MOTION_DOT":"0.00000609","LAUNCH_DATE":"2020-10-18","TLE_LINE2":"2 46726  53.0539 223.5248 0001386 169.2547 190.8471 15.06397126104342","RCS_SIZE":"LARGE","DECAY_DATE":null,"OBJECT_ID":"2020-073BJ","INCLINATION":"53.0539","BSTAR":"0.00005980300000","OBJECT_TYPE":"PAYLOAD","FILE":"3563022","TLE_LINE1":"1 46726U 20073BJ  22250.63191428  .00000609  00000-0  59803-4 0  9996","MEAN_ANOMALY":"190.8471","REF_FRAME":"TEME","EPOCH":"2022-09-07T15:09:57.393792","CENTER_NAME":"EARTH","MEAN_ELEMENT_THEORY":"SGP4"},{"ARG_OF_PERICENTER":"74.0062","EPHEMERIS_TYPE":"0","OBJECT_NAME":"STARLINK-1830","SEMIMAJOR_AXIS":"6925.282","RA_OF_ASC_NODE":"197.5397","ECCENTRICITY":"0.00022050","MEAN_MOTION":"15.06421654","REV_AT_EPOCH":"10473","TIME_SYSTEM":"UTC","RCS_SIZE":"LARGE","TLE_LINE2":"2 46727  53.0541 197.5397 0002205  74.0062 286.1170 15.06421654104739","DECAY_DATE":null,"LAUNCH_DATE":"2020-10-18","GP_ID":"212009207","MEAN_MOTION_DOT":"-0.00005006","CLASSIFICATION_TYPE":"U","NORAD_CAT_ID":"46727","PERIAPSIS":"545.620","MEAN_MOTION_DDOT":"0.0000000000000","SITE":"AFETR","PERIOD":"95.591","ELEMENT_SET_NO":"999","COUNTRY_CODE":"US","APOAPSIS":"548.674","OBJECT_TYPE":"PAYLOAD","BSTAR":"-0.00031717000000","OBJECT_ID":"2020-073BK","INCLINATION":"53.0541","MEAN_ELEMENT_THEORY":"SGP4","EPOCH":"2022-09-07T20:30:26.455104","CENTER_NAME":"EARTH","REF_FRAME":"TEME","MEAN_ANOMALY":"286.1170","TLE_LINE1":"1 46727U 20073BK  22250.85447286 -.00005006  00000-0 -31717-3 0  9998","FILE":"3563022"},{"OBJECT_NAME":"STARLINK-1848","RA_OF_ASC_NODE":"309.5063","SEMIMAJOR_AXIS":"6925.372","TIME_SYSTEM":"UTC","REV_AT_EPOCH":"10378","ECCENTRICITY":"0.00014420","MEAN_MOTION":"15.06392311","ARG_OF_PERICENTER":"82.9705","EPHEMERIS_TYPE":"0","NORAD_CAT_ID":"46740","PERIAPSIS":"546.238","MEAN_MOTION_DDOT":"0.0000000000000","SITE":"AFETR","PERIOD":"95.593","COUNTRY_CODE":"US","APOAPSIS":"548.236","ELEMENT_SET_NO":"999","LAUNCH_DATE":"2020-10-24","TLE_LINE2":"2 46740  53.0555 309.5063 0001442  82.9705 277.1448 15.06392311103787","DECAY_DATE":null,"RCS_SIZE":"LARGE","CLASSIFICATION_TYPE":"U","GP_ID":"211965200","MEAN_MOTION_DOT":"0.00000380","BSTAR":"0.00004438400000","OBJECT_ID":"2020-074B","INCLINATION":"53.0555","OBJECT_TYPE":"PAYLOAD","FILE":"3562217","TLE_LINE1":"1 46740U 20074B   22250.41677855  .00000380  00000-0  44384-4 0  9996","EPOCH":"2022-09-07T10:00:09.666720","CENTER_NAME":"EARTH","MEAN_ELEMENT_THEORY":"SGP4","MEAN_ANOMALY":"277.1448","REF_FRAME":"TEME"},{"MEAN_MOTION":"15.06385844","ECCENTRICITY":"0.00010410","REV_AT_EPOCH":"10385","TIME_SYSTEM":"UTC","SEMIMAJOR_AXIS":"6925.392","RA_OF_ASC_NODE":"304.7233","OBJECT_NAME":"STARLINK-1865","EPHEMERIS_TYPE":"0","ARG_OF_PERICENTER":"99.7195","COUNTRY_CODE":"US","APOAPSIS":"547.978","ELEMENT_SET_NO":"999","SITE":"AFETR","PERIOD":"95.593","MEAN_MOTION_DDOT":"0.0000000000000","PERIAPSIS":"546.536","NORAD_CAT_ID":"46741","MEAN_MOTION_DOT":"-0.00001273","GP_ID":"211963948","CLASSIFICATION_TYPE":"U","TLE_LINE2":"2 46741  53.0567 304.7233 0001041  99.7195 260.3911 15.06385844103851","DECAY_DATE":null,"RCS_SIZE":"LARGE","LAUNCH_DATE":"2020-10-24","INCLINATION":"53.0567","OBJECT_ID":"2020-074C","BSTAR":"-0.00006658700000","OBJECT_TYPE":"PAYLOAD","TLE_LINE1":"1 46741U 20074C   22250.36748436 -.00001273  00000-0 -66587-4 0  9998","FILE":"3562217","REF_FRAME":"TEME","MEAN_ANOMALY":"260.3911","MEAN_ELEMENT_THEORY":"SGP4","EPOCH":"2022-09-07T08:49:10.648704","CENTER_NAME":"EARTH"}];
